[
  {
    "OBJECT_NAME": "STARLINK-3766",
    "OBJECT_ID": "22041AM",
    "EPOCH": "2025-11-11T07:08:40.249248",
    "MEAN_MOTION": 15.08835759,
    "ECCENTRICITY": 0.0001453,
    "INCLINATION": 53.2164,
    "RA_OF_ASC_NODE": 270.6029,
    "ARG_OF_PERICENTER": 85.5904,
    "MEAN_ANOMALY": 274.5255,
    "EPHEMERIS_TYPE": 0,
    "CLASSIFICATION_TYPE": "U",
    "NORAD_CAT_ID": 52296,
    "ELEMENT_SET_NO": 999,
    "REV_AT_EPOCH": 19663,
    "BSTAR": 0.00059097,
    "MEAN_MOTION_DOT": 9.129e-05,
    "MEAN_MOTION_DDOT": 0.0,
    "TLE_LINE1": "1 52296U 22041AM  25315.29768807  .00009129  00000+0  59097-3 0  9999",
    "TLE_LINE2": "2 52296  53.2164 270.6029 0001453  85.5904 274.5255 15.08835759196633",
    "COMMENT": "Grouped by shell and plane from TLE"
  },
  {
    "OBJECT_NAME": "STARLINK-3758",
    "OBJECT_ID": "22041AN",
    "EPOCH": "2025-11-11T04:24:23.057280",
    "MEAN_MOTION": 15.08842668,
    "ECCENTRICITY": 0.0001412,
    "INCLINATION": 53.2188,
    "RA_OF_ASC_NODE": 271.1142,
    "ARG_OF_PERICENTER": 90.9772,
    "MEAN_ANOMALY": 269.1382,
    "EPHEMERIS_TYPE": 0,
    "CLASSIFICATION_TYPE": "U",
    "NORAD_CAT_ID": 52297,
    "ELEMENT_SET_NO": 999,
    "REV_AT_EPOCH": 19661,
    "BSTAR": 3.7176e-05,
    "MEAN_MOTION_DOT": 3.04e-06,
    "MEAN_MOTION_DDOT": 0.0,
    "TLE_LINE1": "1 52297U 22041AN  25315.18360020  .00000304  00000+0  37176-4 0  9994",
    "TLE_LINE2": "2 52297  53.2188 271.1142 0001412  90.9772 269.1382 15.08842668196616",
    "COMMENT": "Grouped by shell and plane from TLE"
  },
  {
    "OBJECT_NAME": "STARLINK-3760",
    "OBJECT_ID": "22041AP",
    "EPOCH": "2025-11-11T04:34:54.820128",
    "MEAN_MOTION": 15.08843942,
    "ECCENTRICITY": 0.0001485,
    "INCLINATION": 53.2186,
    "RA_OF_ASC_NODE": 270.6966,
    "ARG_OF_PERICENTER": 98.053,
    "MEAN_ANOMALY": 262.063,
    "EPHEMERIS_TYPE": 0,
    "CLASSIFICATION_TYPE": "U",
    "NORAD_CAT_ID": 52298,
    "ELEMENT_SET_NO": 999,
    "REV_AT_EPOCH": 19662,
    "BSTAR": 0.000121,
    "MEAN_MOTION_DOT": 1.639e-05,
    "MEAN_MOTION_DDOT": 0.0,
    "TLE_LINE1": "1 52298U 22041AP  25315.19091227  .00001639  00000+0  12100-3 0  9997",
    "TLE_LINE2": "2 52298  53.2186 270.6966 0001485  98.0530 262.0630 15.08843942196629",
    "COMMENT": "Grouped by shell and plane from TLE"
  },
  {
    "OBJECT_NAME": "STARLINK-3769",
    "OBJECT_ID": "22041AR",
    "EPOCH": "2025-11-11T06:52:45.240672",
    "MEAN_MOTION": 15.08840625,
    "ECCENTRICITY": 0.0001554,
    "INCLINATION": 53.2178,
    "RA_OF_ASC_NODE": 270.6515,
    "ARG_OF_PERICENTER": 103.2054,
    "MEAN_ANOMALY": 256.9112,
    "EPHEMERIS_TYPE": 0,
    "CLASSIFICATION_TYPE": "U",
    "NORAD_CAT_ID": 52300,
    "ELEMENT_SET_NO": 999,
    "REV_AT_EPOCH": 19785,
    "BSTAR": 1.9624e-05,
    "MEAN_MOTION_DOT": 2.4e-07,
    "MEAN_MOTION_DDOT": 0.0,
    "TLE_LINE1": "1 52300U 22041AR  25315.28663473  .00000024  00000+0  19624-4 0  9995",
    "TLE_LINE2": "2 52300  53.2178 270.6515 0001554 103.2054 256.9112 15.08840625197859",
    "COMMENT": "Grouped by shell and plane from TLE"
  },
  {
    "OBJECT_NAME": "STARLINK-3768",
    "OBJECT_ID": "22041AS",
    "EPOCH": "2025-11-11T04:08:29.010336",
    "MEAN_MOTION": 15.08836595,
    "ECCENTRICITY": 0.0001295,
    "INCLINATION": 53.2166,
    "RA_OF_ASC_NODE": 271.1611,
    "ARG_OF_PERICENTER": 82.3137,
    "MEAN_ANOMALY": 277.8002,
    "EPHEMERIS_TYPE": 0,
    "CLASSIFICATION_TYPE": "U",
    "NORAD_CAT_ID": 52301,
    "ELEMENT_SET_NO": 999,
    "REV_AT_EPOCH": 19661,
    "BSTAR": 4.8337e-05,
    "MEAN_MOTION_DOT": 4.81e-06,
    "MEAN_MOTION_DDOT": 0.0,
    "TLE_LINE1": "1 52301U 22041AS  25315.17255799  .00000481  00000+0  48337-4 0  9992",
    "TLE_LINE2": "2 52301  53.2166 271.1611 0001295  82.3137 277.8002 15.08836595196615",
    "COMMENT": "Grouped by shell and plane from TLE"
  },
  {
    "OBJECT_NAME": "STARLINK-3742",
    "OBJECT_ID": "22041AU",
    "EPOCH": "2025-11-11T06:58:03.013824",
    "MEAN_MOTION": 15.08845669,
    "ECCENTRICITY": 0.0001442,
    "INCLINATION": 53.218,
    "RA_OF_ASC_NODE": 270.6349,
    "ARG_OF_PERICENTER": 96.1168,
    "MEAN_ANOMALY": 263.9988,
    "EPHEMERIS_TYPE": 0,
    "CLASSIFICATION_TYPE": "U",
    "NORAD_CAT_ID": 52303,
    "ELEMENT_SET_NO": 999,
    "REV_AT_EPOCH": 19785,
    "BSTAR": 8.690600000000001e-05,
    "MEAN_MOTION_DOT": 1.096e-05,
    "MEAN_MOTION_DDOT": 0.0,
    "TLE_LINE1": "1 52303U 22041AU  25315.29031266  .00001096  00000+0  86906-4 0  9995",
    "TLE_LINE2": "2 52303  53.2180 270.6349 0001442  96.1168 263.9988 15.08845669197854",
    "COMMENT": "Grouped by shell and plane from TLE"
  },
  {
    "OBJECT_NAME": "STARLINK-3724",
    "OBJECT_ID": "22041AW",
    "EPOCH": "2025-11-11T07:03:22.330944",
    "MEAN_MOTION": 15.08845519,
    "ECCENTRICITY": 0.0001589,
    "INCLINATION": 53.2171,
    "RA_OF_ASC_NODE": 270.7245,
    "ARG_OF_PERICENTER": 103.4794,
    "MEAN_ANOMALY": 256.6375,
    "EPHEMERIS_TYPE": 0,
    "CLASSIFICATION_TYPE": "U",
    "NORAD_CAT_ID": 52305,
    "ELEMENT_SET_NO": 999,
    "REV_AT_EPOCH": 19663,
    "BSTAR": 6.6464e-05,
    "MEAN_MOTION_DOT": 7.7e-06,
    "MEAN_MOTION_DDOT": 0.0,
    "TLE_LINE1": "1 52305U 22041AW  25315.29400846  .00000770  00000+0  66464-4 0  9996",
    "TLE_LINE2": "2 52305  53.2171 270.7245 0001589 103.4794 256.6375 15.08845519196639",
    "COMMENT": "Grouped by shell and plane from TLE"
  },
  {
    "OBJECT_NAME": "STARLINK-3755",
    "OBJECT_ID": "22041AY",
    "EPOCH": "2025-11-11T06:47:27.391488",
    "MEAN_MOTION": 15.08855493,
    "ECCENTRICITY": 0.0001304,
    "INCLINATION": 53.2163,
    "RA_OF_ASC_NODE": 270.6702,
    "ARG_OF_PERICENTER": 83.5081,
    "MEAN_ANOMALY": 276.606,
    "EPHEMERIS_TYPE": 0,
    "CLASSIFICATION_TYPE": "U",
    "NORAD_CAT_ID": 52307,
    "ELEMENT_SET_NO": 999,
    "REV_AT_EPOCH": 19663,
    "BSTAR": 0.00054846,
    "MEAN_MOTION_DOT": 8.455e-05,
    "MEAN_MOTION_DDOT": 0.0,
    "TLE_LINE1": "1 52307U 22041AY  25315.28295592  .00008455  00000+0  54846-3 0  9995",
    "TLE_LINE2": "2 52307  53.2163 270.6702 0001304  83.5081 276.6060 15.08855493196636",
    "COMMENT": "Grouped by shell and plane from TLE"
  },
  {
    "OBJECT_NAME": "STARLINK-4259",
    "OBJECT_ID": "22076B",
    "EPOCH": "2025-11-11T04:21:03.672000",
    "MEAN_MOTION": 15.08844067,
    "ECCENTRICITY": 0.0001577,
    "INCLINATION": 53.2184,
    "RA_OF_ASC_NODE": 276.1224,
    "ARG_OF_PERICENTER": 99.0083,
    "MEAN_ANOMALY": 261.1088,
    "EPHEMERIS_TYPE": 0,
    "CLASSIFICATION_TYPE": "U",
    "NORAD_CAT_ID": 52987,
    "ELEMENT_SET_NO": 999,
    "REV_AT_EPOCH": 18481,
    "BSTAR": 4.0459e-05,
    "MEAN_MOTION_DOT": 3.56e-06,
    "MEAN_MOTION_DDOT": 0.0,
    "TLE_LINE1": "1 52987U 22076B   25315.18129250  .00000356  00000+0  40459-4 0  9991",
    "TLE_LINE2": "2 52987  53.2184 276.1224 0001577  99.0083 261.1088 15.08844067184810",
    "COMMENT": "Grouped by shell and plane from TLE"
  },
  {
    "OBJECT_NAME": "STARLINK-4293",
    "OBJECT_ID": "22076D",
    "EPOCH": "2025-11-11T04:15:45.620640",
    "MEAN_MOTION": 15.08842796,
    "ECCENTRICITY": 0.0001596,
    "INCLINATION": 53.2184,
    "RA_OF_ASC_NODE": 276.1382,
    "ARG_OF_PERICENTER": 106.2776,
    "MEAN_ANOMALY": 253.8392,
    "EPHEMERIS_TYPE": 0,
    "CLASSIFICATION_TYPE": "U",
    "NORAD_CAT_ID": 52989,
    "ELEMENT_SET_NO": 999,
    "REV_AT_EPOCH": 18481,
    "BSTAR": 2.1267e-05,
    "MEAN_MOTION_DOT": 5e-07,
    "MEAN_MOTION_DDOT": 0.0,
    "TLE_LINE1": "1 52989U 22076D   25315.17761135  .00000050  00000+0  21267-4 0  9993",
    "TLE_LINE2": "2 52989  53.2184 276.1382 0001596 106.2776 253.8392 15.08842796184811",
    "COMMENT": "Grouped by shell and plane from TLE"
  },
  {
    "OBJECT_NAME": "STARLINK-4286",
    "OBJECT_ID": "22076E",
    "EPOCH": "2025-11-11T04:10:27.564096",
    "MEAN_MOTION": 15.08839882,
    "ECCENTRICITY": 0.0001088,
    "INCLINATION": 53.2173,
    "RA_OF_ASC_NODE": 276.1577,
    "ARG_OF_PERICENTER": 81.8016,
    "MEAN_ANOMALY": 278.31,
    "EPHEMERIS_TYPE": 0,
    "CLASSIFICATION_TYPE": "U",
    "NORAD_CAT_ID": 52990,
    "ELEMENT_SET_NO": 999,
    "REV_AT_EPOCH": 18481,
    "BSTAR": 0.00025263000000000005,
    "MEAN_MOTION_DOT": 3.735e-05,
    "MEAN_MOTION_DDOT": 0.0,
    "TLE_LINE1": "1 52990U 22076E   25315.17393014  .00003735  00000+0  25263-3 0  9994",
    "TLE_LINE2": "2 52990  53.2173 276.1577 0001088  81.8016 278.3100 15.08839882184819",
    "COMMENT": "Grouped by shell and plane from TLE"
  },
  {
    "OBJECT_NAME": "STARLINK-4285",
    "OBJECT_ID": "22076F",
    "EPOCH": "2025-11-11T04:05:10.004352",
    "MEAN_MOTION": 15.08843177,
    "ECCENTRICITY": 0.000137,
    "INCLINATION": 53.2178,
    "RA_OF_ASC_NODE": 276.1738,
    "ARG_OF_PERICENTER": 96.9512,
    "MEAN_ANOMALY": 263.1636,
    "EPHEMERIS_TYPE": 0,
    "CLASSIFICATION_TYPE": "U",
    "NORAD_CAT_ID": 52991,
    "ELEMENT_SET_NO": 999,
    "REV_AT_EPOCH": 18481,
    "BSTAR": 5.0402e-05,
    "MEAN_MOTION_DOT": 5.14e-06,
    "MEAN_MOTION_DDOT": 0.0,
    "TLE_LINE1": "1 52991U 22076F   25315.17025468  .00000514  00000+0  50402-4 0  9996",
    "TLE_LINE2": "2 52991  53.2178 276.1738 0001370  96.9512 263.1636 15.08843177184814",
    "COMMENT": "Grouped by shell and plane from TLE"
  },
  {
    "OBJECT_NAME": "STARLINK-4269",
    "OBJECT_ID": "22076G",
    "EPOCH": "2025-11-11T07:12:00.562464",
    "MEAN_MOTION": 15.088511,
    "ECCENTRICITY": 0.0001515,
    "INCLINATION": 53.2176,
    "RA_OF_ASC_NODE": 275.6034,
    "ARG_OF_PERICENTER": 88.0206,
    "MEAN_ANOMALY": 272.096,
    "EPHEMERIS_TYPE": 0,
    "CLASSIFICATION_TYPE": "U",
    "NORAD_CAT_ID": 52992,
    "ELEMENT_SET_NO": 999,
    "REV_AT_EPOCH": 18483,
    "BSTAR": 0.0001719,
    "MEAN_MOTION_DOT": 2.45e-05,
    "MEAN_MOTION_DDOT": 0.0,
    "TLE_LINE1": "1 52992U 22076G   25315.30000651  .00002450  00000+0  17190-3 0  9996",
    "TLE_LINE2": "2 52992  53.2176 275.6034 0001515  88.0206 272.0960 15.08851100184835",
    "COMMENT": "Grouped by shell and plane from TLE"
  }
]